CCSDS_OMM_VERS = 2.0
CREATION_DATE  = 
ORIGINATOR     = 

OBJECT_NAME    = STARLINK-37156
OBJECT_ID      = 2026-055B
CENTER_NAME    = EARTH
REF_FRAME      = TEME
TIME_SYSTEM    = UTC
MEAN_ELEMENT_THEORY = SGP/SGP4

EPOCH          = 2026-03-27T04:00:03.000096
MEAN_MOTION    = 15.98515810
ECCENTRICITY   = .0000796
INCLINATION    = 53.1590
RA_OF_ASC_NODE = 250.2331
ARG_OF_PERICENTER = 67.9742
MEAN_ANOMALY   = 109.2059

EPHEMERIS_TYPE = 0
CLASSIFICATION_TYPE = U
NORAD_CAT_ID   = 68263
ELEMENT_SET_NO = 999
REV_AT_EPOCH   = 244
BSTAR          = -.20463E-2
MEAN_MOTION_DOT = -.989438E-2
MEAN_MOTION_DDOT = .32071E-3

CCSDS_OMM_VERS = 2.0
CREATION_DATE  = 
ORIGINATOR     = 

OBJECT_NAME    = STARLINK-37163
OBJECT_ID      = 2026-055C
CENTER_NAME    = EARTH
REF_FRAME      = TEME
TIME_SYSTEM    = UTC
MEAN_ELEMENT_THEORY = SGP/SGP4

EPOCH          = 2026-03-27T04:00:03.000096
MEAN_MOTION    = 15.98765490
ECCENTRICITY   = .0000733
INCLINATION    = 53.1589
RA_OF_ASC_NODE = 250.2225
ARG_OF_PERICENTER = 63.4035
MEAN_ANOMALY   = 118.6265

EPHEMERIS_TYPE = 0
CLASSIFICATION_TYPE = U
NORAD_CAT_ID   = 68264
ELEMENT_SET_NO = 999
REV_AT_EPOCH   = 244
BSTAR          = -.20254E-2
MEAN_MOTION_DOT = -.993135E-2
MEAN_MOTION_DDOT = .32374E-3

CCSDS_OMM_VERS = 2.0
CREATION_DATE  = 
ORIGINATOR     = 

OBJECT_NAME    = STARLINK-37133
OBJECT_ID      = 2026-055D
CENTER_NAME    = EARTH
REF_FRAME      = TEME
TIME_SYSTEM    = UTC
MEAN_ELEMENT_THEORY = SGP/SGP4

EPOCH          = 2026-03-27T04:00:03.000096
MEAN_MOTION    = 15.98644909
ECCENTRICITY   = .0000706
INCLINATION    = 53.1590
RA_OF_ASC_NODE = 250.2278
ARG_OF_PERICENTER = 71.3168
MEAN_ANOMALY   = 108.3519

EPHEMERIS_TYPE = 0
CLASSIFICATION_TYPE = U
NORAD_CAT_ID   = 68265
ELEMENT_SET_NO = 999
REV_AT_EPOCH   = 244
BSTAR          = -.20435E-2
MEAN_MOTION_DOT = -.995211E-2
MEAN_MOTION_DDOT = .32455E-3

CCSDS_OMM_VERS = 2.0
CREATION_DATE  = 
ORIGINATOR     = 

OBJECT_NAME    = STARLINK-37042
OBJECT_ID      = 2026-055E
CENTER_NAME    = EARTH
REF_FRAME      = TEME
TIME_SYSTEM    = UTC
MEAN_ELEMENT_THEORY = SGP/SGP4

EPOCH          = 2026-03-27T04:00:03.000096
MEAN_MOTION    = 15.98919279
ECCENTRICITY   = .0000754
INCLINATION    = 53.1589
RA_OF_ASC_NODE = 250.2165
ARG_OF_PERICENTER = 63.1889
MEAN_ANOMALY   = 121.9495

EPHEMERIS_TYPE = 0
CLASSIFICATION_TYPE = U
NORAD_CAT_ID   = 68266
ELEMENT_SET_NO = 999
REV_AT_EPOCH   = 244
BSTAR          = -.20046E-2
MEAN_MOTION_DOT = -.991513E-2
MEAN_MOTION_DDOT = .32331E-3

CCSDS_OMM_VERS = 2.0
CREATION_DATE  = 
ORIGINATOR     = 

OBJECT_NAME    = STARLINK-37103
OBJECT_ID      = 2026-055F
CENTER_NAME    = EARTH
REF_FRAME      = TEME
TIME_SYSTEM    = UTC
MEAN_ELEMENT_THEORY = SGP/SGP4

EPOCH          = 2026-03-27T04:00:03.000096
MEAN_MOTION    = 15.99058132
ECCENTRICITY   = .0000827
INCLINATION    = 53.1592
RA_OF_ASC_NODE = 250.2107
ARG_OF_PERICENTER = 65.3720
MEAN_ANOMALY   = 122.4206

EPHEMERIS_TYPE = 0
CLASSIFICATION_TYPE = U
NORAD_CAT_ID   = 68267
ELEMENT_SET_NO = 999
REV_AT_EPOCH   = 244
BSTAR          = -.19978E-2
MEAN_MOTION_DOT = -.9959E-2
MEAN_MOTION_DDOT = .32639E-3

CCSDS_OMM_VERS = 2.0
CREATION_DATE  = 
ORIGINATOR     = 

OBJECT_NAME    = STARLINK-36999
OBJECT_ID      = 2026-055G
CENTER_NAME    = EARTH
REF_FRAME      = TEME
TIME_SYSTEM    = UTC
MEAN_ELEMENT_THEORY = SGP/SGP4

EPOCH          = 2026-03-27T04:00:03.000096
MEAN_MOTION    = 15.99181896
ECCENTRICITY   = .0000799
INCLINATION    = 53.1591
RA_OF_ASC_NODE = 250.2059
ARG_OF_PERICENTER = 63.4526
MEAN_ANOMALY   = 126.7262

EPHEMERIS_TYPE = 0
CLASSIFICATION_TYPE = U
NORAD_CAT_ID   = 68268
ELEMENT_SET_NO = 999
REV_AT_EPOCH   = 244
BSTAR          = -.1986E-2
MEAN_MOTION_DOT = -.996976E-2
MEAN_MOTION_DDOT = .32746E-3

CCSDS_OMM_VERS = 2.0
CREATION_DATE  = 
ORIGINATOR     = 

OBJECT_NAME    = STARLINK-36962
OBJECT_ID      = 2026-055H
CENTER_NAME    = EARTH
REF_FRAME      = TEME
TIME_SYSTEM    = UTC
MEAN_ELEMENT_THEORY = SGP/SGP4

EPOCH          = 2026-03-27T04:00:03.000096
MEAN_MOTION    = 15.99316126
ECCENTRICITY   = .0000805
INCLINATION    = 53.1591
RA_OF_ASC_NODE = 250.2006
ARG_OF_PERICENTER = 69.2427
MEAN_ANOMALY   = 123.4690

EPHEMERIS_TYPE = 0
CLASSIFICATION_TYPE = U
NORAD_CAT_ID   = 68269
ELEMENT_SET_NO = 999
REV_AT_EPOCH   = 244
BSTAR          = -.19785E-2
MEAN_MOTION_DOT = -.1000759E-1
MEAN_MOTION_DDOT = .33018E-3

CCSDS_OMM_VERS = 2.0
CREATION_DATE  = 
ORIGINATOR     = 

OBJECT_NAME    = STARLINK-37028
OBJECT_ID      = 2026-055J
CENTER_NAME    = EARTH
REF_FRAME      = TEME
TIME_SYSTEM    = UTC
MEAN_ELEMENT_THEORY = SGP/SGP4

EPOCH          = 2026-03-27T04:00:03.000096
MEAN_MOTION    = 15.99658134
ECCENTRICITY   = .0000687
INCLINATION    = 53.1591
RA_OF_ASC_NODE = 250.1830
ARG_OF_PERICENTER = 64.7810
MEAN_ANOMALY   = 136.1730

EPHEMERIS_TYPE = 0
CLASSIFICATION_TYPE = U
NORAD_CAT_ID   = 68270
ELEMENT_SET_NO = 999
REV_AT_EPOCH   = 244
BSTAR          = -.19579E-2
MEAN_MOTION_DOT = -.100967E-1
MEAN_MOTION_DDOT = .33675E-3

CCSDS_OMM_VERS = 2.0
CREATION_DATE  = 
ORIGINATOR     = 

OBJECT_NAME    = STARLINK-37029
OBJECT_ID      = 2026-055K
CENTER_NAME    = EARTH
REF_FRAME      = TEME
TIME_SYSTEM    = UTC
MEAN_ELEMENT_THEORY = SGP/SGP4

EPOCH          = 2026-03-27T04:00:03.000096
MEAN_MOTION    = 15.99519999
ECCENTRICITY   = .0000763
INCLINATION    = 53.1590
RA_OF_ASC_NODE = 250.1888
ARG_OF_PERICENTER = 75.0185
MEAN_ANOMALY   = 123.3304

EPHEMERIS_TYPE = 0
CLASSIFICATION_TYPE = U
NORAD_CAT_ID   = 68271
ELEMENT_SET_NO = 999
REV_AT_EPOCH   = 244
BSTAR          = -.1974E-2
MEAN_MOTION_DOT = -.1010014E-1
MEAN_MOTION_DDOT = .33646E-3

CCSDS_OMM_VERS = 2.0
CREATION_DATE  = 
ORIGINATOR     = 

OBJECT_NAME    = STARLINK-36974
OBJECT_ID      = 2026-055L
CENTER_NAME    = EARTH
REF_FRAME      = TEME
TIME_SYSTEM    = UTC
MEAN_ELEMENT_THEORY = SGP/SGP4

EPOCH          = 2026-03-27T04:00:03.000096
MEAN_MOTION    = 15.99833424
ECCENTRICITY   = .0000615
INCLINATION    = 53.1591
RA_OF_ASC_NODE = 250.1765
ARG_OF_PERICENTER = 63.9313
MEAN_ANOMALY   = 140.2928

EPHEMERIS_TYPE = 0
CLASSIFICATION_TYPE = U
NORAD_CAT_ID   = 68272
ELEMENT_SET_NO = 999
REV_AT_EPOCH   = 244
BSTAR          = -.19538E-2
MEAN_MOTION_DOT = -.1017588E-1
MEAN_MOTION_DDOT = .34219E-3

CCSDS_OMM_VERS = 2.0
CREATION_DATE  = 
ORIGINATOR     = 

OBJECT_NAME    = STARLINK-37019
OBJECT_ID      = 2026-055M
CENTER_NAME    = EARTH
REF_FRAME      = TEME
TIME_SYSTEM    = UTC
MEAN_ELEMENT_THEORY = SGP/SGP4

EPOCH          = 2026-03-27T04:00:03.000096
MEAN_MOTION    = 15.99948941
ECCENTRICITY   = .0000757
INCLINATION    = 53.1590
RA_OF_ASC_NODE = 250.1713
ARG_OF_PERICENTER = 64.3386
MEAN_ANOMALY   = 142.1202

EPHEMERIS_TYPE = 0
CLASSIFICATION_TYPE = U
NORAD_CAT_ID   = 68273
ELEMENT_SET_NO = 999
REV_AT_EPOCH   = 244
BSTAR          = -.19153E-2
MEAN_MOTION_DOT = -.1004266E-1
MEAN_MOTION_DDOT = .33454E-3

CCSDS_OMM_VERS = 2.0
CREATION_DATE  = 
ORIGINATOR     = 

OBJECT_NAME    = STARLINK-37129
OBJECT_ID      = 2026-055N
CENTER_NAME    = EARTH
REF_FRAME      = TEME
TIME_SYSTEM    = UTC
MEAN_ELEMENT_THEORY = SGP/SGP4

EPOCH          = 2026-03-27T04:00:03.000096
MEAN_MOTION    = 16.00089249
ECCENTRICITY   = .0000725
INCLINATION    = 53.1589
RA_OF_ASC_NODE = 250.1662
ARG_OF_PERICENTER = 68.3702
MEAN_ANOMALY   = 140.6890

EPHEMERIS_TYPE = 0
CLASSIFICATION_TYPE = U
NORAD_CAT_ID   = 68274
ELEMENT_SET_NO = 999
REV_AT_EPOCH   = 244
BSTAR          = -.18972E-2
MEAN_MOTION_DOT = -.1002824E-1
MEAN_MOTION_DDOT = .33418E-3

