STARLINK-37156          
1 68263U 26055B   26086.16670139 -.00989438  32071-3 -20463-2 0  9994
2 68263  53.1590 250.2331 0000796  67.9742 109.2059 15.98515810  2442
STARLINK-37163          
1 68264U 26055C   26086.16670139 -.00993135  32374-3 -20254-2 0  9998
2 68264  53.1589 250.2225 0000733  63.4035 118.6265 15.98765490  2444
STARLINK-37133          
1 68265U 26055D   26086.16670139 -.00995211  32455-3 -20435-2 0  9997
2 68265  53.1590 250.2278 0000706  71.3168 108.3519 15.98644909  2449
STARLINK-37042          
1 68266U 26055E   26086.16670139 -.00991513  32331-3 -20046-2 0  9990
2 68266  53.1589 250.2165 0000754  63.1889 121.9495 15.98919279  2444
STARLINK-37103          
1 68267U 26055F   26086.16670139 -.00995900  32639-3 -19978-2 0  9998
2 68267  53.1592 250.2107 0000827  65.3720 122.4206 15.99058132  2443
STARLINK-36999          
1 68268U 26055G   26086.16670139 -.00996976  32746-3 -19860-2 0  9992
2 68268  53.1591 250.2059 0000799  63.4526 126.7262 15.99181896  2443
STARLINK-36962          
1 68269U 26055H   26086.16670139 -.01000759  33018-3 -19785-2 0  9998
2 68269  53.1591 250.2006 0000805  69.2427 123.4690 15.99316126  2443
STARLINK-37028          
1 68270U 26055J   26086.16670139 -.01009670  33675-3 -19579-2 0  9991
2 68270  53.1591 250.1830 0000687  64.7810 136.1730 15.99658134  2447
STARLINK-37029          
1 68271U 26055K   26086.16670139 -.01010014  33646-3 -19740-2 0  9994
2 68271  53.1590 250.1888 0000763  75.0185 123.3304 15.99519999  2445
STARLINK-36974          
1 68272U 26055L   26086.16670139 -.01017588  34219-3 -19538-2 0  9990
2 68272  53.1591 250.1765 0000615  63.9313 140.2928 15.99833424  2448
STARLINK-37019          
1 68273U 26055M   26086.16670139 -.01004266  33454-3 -19153-2 0  9993
2 68273  53.1590 250.1713 0000757  64.3386 142.1202 15.99948941  2440
STARLINK-37129          
1 68274U 26055N   26086.16670139 -.01002824  33418-3 -18972-2 0  9990
2 68274  53.1589 250.1662 0000725  68.3702 140.6890 16.00089249  2449
